     2.11           N: GPS NAV DATA                         RINEX VERSION / TYPE
teqc  2019Feb25                         20221121 12:28:10UTCPGM / RUN BY / DATE
OSX ker:10.11.6|Core i5|gcc 4.3 -m64|OSX ker:10.10+|=+      COMMENT
    1.1176D-08  0.0000D+00 -5.9605D-08  0.0000D+00          ION ALPHA
    9.0112D+04  0.0000D+00 -1.9661D+05  0.0000D+00          ION BETA
    3.725290298462D-09 8.881784197001D-15    61440     1553 DELTA-UTC: A0,A1,T,W
                                                            END OF HEADER
 2 09 10 10  0  0  0.0 1.795329153538D-04 3.524291969370D-12 0.000000000000D+00
    1.500000000000D+01 8.500000000000D+00 5.212359972858D-09-1.270149331778D+00
    4.284083843231D-07 9.120302158408D-03 8.620321750641D-06 5.153715778351D+03
    5.184000000000D+05 1.117587089539D-08-2.794216333457D+00-1.359730958939D-07
    9.411044840707D-01 2.034375000000D+02 2.902511212740D+00-8.281773540539D-09
   -1.750072897561D-10 1.000000000000D+00 1.552000000000D+03 0.000000000000D+00
    2.000000000000D+00 0.000000000000D+00-1.722946763039D-08 1.500000000000D+01
    5.153880000000D+05 4.000000000000D+00
 4 09 10 10  0  0  0.0-3.036269918084D-04-1.762145984685D-11 0.000000000000D+00
    5.800000000000D+01 1.278125000000D+01 5.252004481353D-09 1.561975195565D+00
    8.530914783478D-07 8.904543588869D-03 8.953735232353D-06 5.153549821854D+03
    5.184000000000D+05-1.322478055954D-07-2.776025037843D+00 1.601874828339D-07
    9.402851329129D-01 1.989375000000D+02 5.353938125242D-01-8.309274686072D-09
   -3.685867816904D-10 1.000000000000D+00 1.552000000000D+03 0.000000000000D+00
    2.000000000000D+00 0.000000000000D+00-6.053596735001D-09 5.800000000000D+01
    5.153880000000D+05 4.000000000000D+00
12 09 10 10  0  0  0.0-2.067741006613D-04 5.456968210638D-12 0.000000000000D+00
    5.700000000000D+01-4.900000000000D+01 4.155173079637D-09-2.918096694303D+00
   -2.520158886909D-06 3.066687262617D-03 9.026378393173D-06 5.153557832718D+03
    5.184000000000D+05 2.235174179077D-08 1.415482191052D+00 2.793967723846D-08
    9.679946958131D-01 2.065937500000D+02-5.767018748393D-01-7.791038813753D-09
    3.625151002090D-10 1.000000000000D+00 1.552000000000D+03 0.000000000000D+00
    2.000000000000D+00 0.000000000000D+00-1.164153218269D-08 5.700000000000D+01
    5.153880000000D+05 4.000000000000D+00
20 09 10 10  0  0  0.0 7.035257294774D-05-9.094947017729D-13 0.000000000000D+00
    6.900000000000D+01 1.085000000000D+02 4.951634826895D-09 1.325261433498D+00
    5.520880222321D-06 3.876947448589D-03 8.653849363327D-06 5.153764108658D+03
    5.184000000000D+05-1.490116119385D-07-1.759666706279D+00-3.725290298462D-08
    9.399800779204D-01 1.998750000000D+02 1.312254479638D+00-8.253200921803D-09
   -1.600066649198D-10 1.000000000000D+00 1.552000000000D+03 0.000000000000D+00
    2.000000000000D+00 0.000000000000D+00-7.450580596924D-09 6.900000000000D+01
    5.153880000000D+05 4.000000000000D+00
23 09 10 10  0  0  0.0 3.876867704093D-04-4.547473508865D-13 0.000000000000D+00
    4.900000000000D+01 4.265625000000D+01 4.418398329740D-09-1.364968539710D+00
    2.110376954079D-06 6.393173942342D-03 2.842396497726D-06 5.153767541885D+03
    5.184000000000D+05-5.960464477539D-08-6.785119133047D-01-1.061707735062D-07
    9.696287416605D-01 3.298437500000D+02 2.987454232923D+00-8.279630594134D-09
    1.892935991239D-11 1.000000000000D+00 1.552000000000D+03 0.000000000000D+00
    2.000000000000D+00 0.000000000000D+00-2.002343535423D-08 4.900000000000D+01
    5.153880000000D+05 4.000000000000D+00
30 09 10 10  0  0  0.0 1.835958100855D-04 3.069544618484D-12 0.000000000000D+00
    1.020000000000D+02-4.868750000000D+01 4.585548149344D-09 8.501224385776D-01
   -2.704560756683D-06 1.194408105221D-02 9.153038263321D-06 5.153663969040D+03
    5.184000000000D+05-1.359730958939D-07 1.365530031075D+00-1.154839992523D-07
    9.531571091738D-01 2.005312500000D+02 1.460193549414D+00-8.205341785421D-09
    2.814402945465D-10 1.000000000000D+00 1.552000000000D+03 0.000000000000D+00
    2.800000000000D+00 0.000000000000D+00-7.916241884232D-09 1.020000000000D+02
    5.153880000000D+05 4.000000000000D+00
31 09 10 10  0  0  0.0-6.317952647805D-05 6.821210263297D-13 0.000000000000D+00
    1.000000000000D+01-1.015937500000D+02 3.998023676591D-09 3.139478516065D+00
   -5.071982741356D-06 7.193079800345D-03 5.785375833511D-06 5.153538707733D+03
    5.184000000000D+05 3.725290298462D-08 3.613211975868D-01 5.215406417847D-08
    9.746339403186D-01 2.762500000000D+02-1.147547213159D+00-7.855684363643D-09
   -1.321483616526D-10 1.000000000000D+00 1.552000000000D+03 0.000000000000D+00
    2.000000000000D+00 0.000000000000D+00-1.303851604462D-08 1.000000000000D+01
    5.153880000000D+05 4.000000000000D+00
29 09 10 10  0  0  0.0 6.463564932346D-05 3.296918293927D-12 0.000000000000D+00
    4.300000000000D+01-5.843750000000D+00 4.832701301407D-09 2.418877972708D+00
   -4.693865776062D-07 3.012459841557D-03 7.141381502152D-06 5.153587255478D+03
    5.184000000000D+05 4.842877388000D-08 2.483847133060D+00 9.313225746155D-09
    9.601739708714D-01 2.450937500000D+02-1.270528596216D+00-7.996761668650D-09
    1.971510692762D-10 1.000000000000D+00 1.552000000000D+03 0.000000000000D+00
    2.000000000000D+00 0.000000000000D+00-8.847564458847D-09 4.300000000000D+01
    5.169180000000D+05 4.000000000000D+00
10 09 10 10  0  0  0.0-2.547074109316D-05-9.094947017729D-13 0.000000000000D+00
    7.300000000000D+01 8.293750000000D+01 4.692695469602D-09-1.819037646334D-01
    4.401430487633D-06 8.598818327300D-03 7.838010787964D-06 5.153383453369D+03
    5.184000000000D+05 3.166496753693D-08-1.709135008379D+00 1.061707735062D-07
    9.562093356027D-01 2.240000000000D+02 6.171146751775D-01-8.234271561891D-09
   -1.846505485794D-10 1.000000000000D+00 1.552000000000D+03 0.000000000000D+00
    2.000000000000D+00 0.000000000000D+00-2.793967723846D-09 7.300000000000D+01
    5.171880000000D+05 4.000000000000D+00
 5 09 10 10  0  0  0.0-6.923591718078D-05 9.094947017729D-12 0.000000000000D+00
    8.100000000000D+01 8.415625000000D+01 4.508759236491D-09 9.641562606354D-02
    4.349276423454D-06 1.509927911684D-03 8.048489689827D-06 5.153574203491D+03
    5.184000000000D+05 0.000000000000D+00-1.736190705415D+00 1.676380634308D-08
    9.611421198158D-01 2.225312500000D+02 2.275872817981D-01-8.028548706994D-09
   -1.875078104529D-10 1.000000000000D+00 1.552000000000D+03 0.000000000000D+00
    2.000000000000D+00 0.000000000000D+00-9.313225746155D-09 8.100000000000D+01
    5.180580000000D+05 4.000000000000D+00
